{"spkid": "20612143", "covariance": {"epoch": "2457676.5", "labels": ["e", "q", "tp", "node", "peri", "i"], "data": [["9.225380633300923E-16", "-1.545155915837824E-15", "-2.570239408884692E-14", "7.003362507387089E-14", "1.551480620291201E-14", "-5.74996450588762E-14"], ["-1.545155915837824E-15", "2.591923306645976E-15", "1.558115480317927E-14", "-1.165383146718109E-13", "-3.75375510807737E-14", "9.863642410204029E-14"], ["-2.570239408884692E-14", "1.558115480317927E-14", "2.698561011851686E-10", "-2.482822911968473E-11", "1.650989210806983E-10", "-2.497339783654711E-11"], ["7.003362507387089E-14", "-1.165383146718109E-13", "-2.482822911968473E-11", "2.940628062024989E-9", "-2.924839992699245E-9", "4.751168915074697E-10"], ["1.551480620291201E-14", "-3.75375510807737E-14", "1.650989210806983E-10", "-2.924839992699245E-9", "3.019421318396225E-9", "-4.965886212068367E-10"], ["-5.74996450588762E-14", "9.863642410204029E-14", "-2.497339783654711E-11", "4.751168915074697E-10", "-4.965886212068367E-10", "1.408358191134705E-10"]], "elements": [{"label": "e", "title": "eccentricity", "value": ".5997574639481813", "units": null, "name": "e", "sigma": 3.03733116951394e-08}, {"value": ".6798937898215813", "title": "perihelion distance", "units": "au", "name": "q", "sigma": 5.0910935039989e-08, "label": "q"}, {"sigma": 1.64272974400894e-05, "name": "tp", "title": "time of perihelion passage", "value": "2457361.379779015214", "units": "TDB", "label": "tp"}, {"name": "om", "sigma": 5.42275581418248e-05, "units": "deg", "title": "longitude of the ascending node", "value": "319.8818865585134", "label": "node"}, {"sigma": 5.49492613089223e-05, "name": "w", "title": "argument of perihelion", "value": "303.244607773618", "units": "deg", "label": "peri"}, {"label": "i", "name": "i", "sigma": 1.18674268109591e-05, "units": "deg", "title": "inclination", "value": "6.345606018686418"}]}, "elements": [{"label": "e", "units": null, "value": ".599599355571347", "title": "eccentricity", "name": "e", "sigma": "3.0425E-8"}, {"label": "a", "sigma": "5.055E-9", "name": "a", "units": "au", "title": "semi-major axis", "value": "1.699909929161348"}, {"label": "q", "value": ".6806450311068695", "title": "perihelion distance", "units": "au", "sigma": "5.0624E-8", "name": "q"}, {"units": "deg", "value": "6.345498625895334", "title": "inclination; angle with respect to x-y ecliptic plane", "sigma": "1.1879E-5", "name": "i", "label": "i"}, {"label": "node", "sigma": "5.425E-5", "name": "om", "value": "319.6650208268404", "title": "longitude of the ascending node", "units": "deg"}, {"name": "w", "sigma": "5.4986E-5", "units": "deg", "value": "303.5185002064496", "title": "argument of perihelion", "label": "peri"}, {"label": "M", "title": "mean anomaly", "value": "268.8041808682358", "units": "deg", "sigma": "5.206E-6", "name": "ma"}, {"sigma": "1.2152E-5", "name": "tp", "units": "TDB", "title": "time of perihelion passage", "value": "2461405.573583572076", "label": "tp"}, {"value": "809.5380993209706", "title": "sidereal orbital period", "units": "d", "name": "per", "sigma": "3.6109E-6", "label": "period"}, {"name": "n", "sigma": "1.9836E-9", "title": "mean motion", "value": ".4446980324977454", "units": "deg/d", "label": "n"}, {"label": "Q", "units": "au", "value": "2.719174827215826", "title": "aphelion distance", "name": "ad", "sigma": "8.0859E-9"}], "epoch": "2461200.5"}